EUTELSAT 7A             
1 28187U 04008A   25326.47596986  .00000123  00000+0  00000+0 0  9994
2 28187   5.3042  74.4794 0000749 160.8402 218.5434  1.00270956 79281
EUTELSAT 174A           
1 28924U 05052A   25326.27031874  .00000030  00000+0  00000+0 0  9998
2 28924   3.6936  79.0916 0006073 160.5235  93.2575  1.00269668 50255
EUTELSAT HOTBIRD 13B    
1 29270U 06032A   25326.30742699  .00000177  00000+0  00000+0 0  9992
2 29270   1.1250  84.5424 0003301 153.9209 326.8737  1.00274321 45234
EUTELSAT HOTBIRD 13C    
1 33459U 08065A   25326.43762007 -.00000223  00000+0  00000+0 0  9996
2 33459   2.4165  81.6398 0000822 125.9239 340.3981  1.00053472 45270
EUTELSAT 36B            
1 36101U 09065A   25326.23982656  .00000134  00000+0  00000+0 0  9996
2 36101   0.0417 354.4495 0005884 246.0932 317.8023  1.00269947 58634
EUTELSAT KA-SAT 9A      
1 37258U 10069A   25326.30292030  .00000083  00000+0  00000+0 0  9997
2 37258   0.0582 320.5921 0002273 224.8889 354.1603  1.00268995 41938
EUTELSAT 7 WEST A       
1 37816U 11051A   25326.37104073 -.00000038  00000+0  00000+0 0  9996
2 37816   0.0754  27.0346 0005945 192.7647 328.1056  1.00272793 51804
EUTELSAT 16A            
1 37836U 11057A   25326.30430698  .00000125  00000+0  00000+0 0  9998
2 37836   0.0610 356.5734 0005966 251.3023 299.2418  1.00269401  5251
